start=new Date('2022-05-13T00:00:00.000Z').valueOf();
sats=[{"PERIOD":"95.591","ECCENTRICITY":"0.00013320","CLASSIFICATION_TYPE":"U","MEAN_ANOMALY":"322.8125","TIME_SYSTEM":"UTC","TLE_LINE1":"1 48693U 21044BH  22133.00001157  .00000339  00000-0  41641-4 0  9991","BSTAR":"0.00004164100000","SEMIMAJOR_AXIS":"6925.310","GP_ID":"203392206","OBJECT_NAME":"STARLINK-2618","OBJECT_TYPE":"PAYLOAD","APOAPSIS":"548.098","NORAD_CAT_ID":"48693","SITE":"AFETR","ELEMENT_SET_NO":"999","RA_OF_ASC_NODE":"231.6058","MEAN_ELEMENT_THEORY":"SGP4","RCS_SIZE":"LARGE","OBJECT_ID":"2021-044BH","INCLINATION":"53.0531","COUNTRY_CODE":"US","MEAN_MOTION":"15.06412424","ARG_OF_PERICENTER":"63.5667","EPHEMERIS_TYPE":"0","PERIAPSIS":"546.253","DECAY_DATE":null,"MEAN_MOTION_DDOT":"0.0000000000000","CENTER_NAME":"EARTH","MEAN_MOTION_DOT":"0.00000339","TLE_LINE2":"2 48693  53.0531 231.6058 0001332  63.5667 322.8125 15.06412424  1302","EPOCH":"2022-05-13T00:00:00.999648","REV_AT_EPOCH":"130","FILE":"3442534","REF_FRAME":"TEME","LAUNCH_DATE":"2021-05-26"},{"TIME_SYSTEM":"UTC","MEAN_ANOMALY":"145.6482","PERIOD":"95.591","ECCENTRICITY":"0.00017000","CLASSIFICATION_TYPE":"U","BSTAR":"-0.00142970000000","TLE_LINE1":"1 48694U 21044BJ  22133.00001157 -.00021527  00000-0 -14297-2 0  9991","OBJECT_TYPE":"PAYLOAD","OBJECT_NAME":"STARLINK-2748","GP_ID":"203391956","SEMIMAJOR_AXIS":"6925.274","ELEMENT_SET_NO":"999","RA_OF_ASC_NODE":"236.6045","SITE":"AFETR","APOAPSIS":"548.316","NORAD_CAT_ID":"48694","ARG_OF_PERICENTER":"48.1215","EPHEMERIS_TYPE":"0","MEAN_MOTION":"15.06424289","OBJECT_ID":"2021-044BJ","INCLINATION":"53.0550","COUNTRY_CODE":"US","MEAN_ELEMENT_THEORY":"SGP4","RCS_SIZE":"LARGE","CENTER_NAME":"EARTH","MEAN_MOTION_DOT":"-0.00021527","MEAN_MOTION_DDOT":"0.0000000000000","DECAY_DATE":null,"PERIAPSIS":"545.962","REV_AT_EPOCH":"130","EPOCH":"2022-05-13T00:00:00.999648","TLE_LINE2":"2 48694  53.0550 236.6045 0001700  48.1215 145.6482 15.06424289  1301","LAUNCH_DATE":"2021-05-26","REF_FRAME":"TEME","FILE":"3442534"},{"DECAY_DATE":null,"PERIAPSIS":"553.292","MEAN_MOTION_DOT":"-0.00173378","CENTER_NAME":"EARTH","MEAN_MOTION_DDOT":"0.0000000000000","OBJECT_ID":"2021-044BK","INCLINATION":"53.0546","COUNTRY_CODE":"US","MEAN_ELEMENT_THEORY":"SGP4","RCS_SIZE":"LARGE","ARG_OF_PERICENTER":"54.5682","EPHEMERIS_TYPE":"0","MEAN_MOTION":"15.04070367","REF_FRAME":"TEME","FILE":"3442534","LAUNCH_DATE":"2021-05-26","TLE_LINE2":"2 48695  53.0546 236.6106 0001544  54.5682  37.6054 15.04070367  1307","REV_AT_EPOCH":"130","EPOCH":"2022-05-13T00:00:00.999648","TLE_LINE1":"1 48695U 21044BK  22133.00001157 -.00173378  00000-0 -12678-1 0  9994","BSTAR":"-0.01267800000000","PERIOD":"95.740","ECCENTRICITY":"0.00015440","CLASSIFICATION_TYPE":"U","TIME_SYSTEM":"UTC","MEAN_ANOMALY":"37.6054","SITE":"AFETR","APOAPSIS":"555.433","NORAD_CAT_ID":"48695","ELEMENT_SET_NO":"999","RA_OF_ASC_NODE":"236.6106","GP_ID":"203391205","SEMIMAJOR_AXIS":"6932.498","OBJECT_TYPE":"PAYLOAD","OBJECT_NAME":"STARLINK-2616"},{"MEAN_ANOMALY":"322.5500","TIME_SYSTEM":"UTC","PERIOD":"95.592","CLASSIFICATION_TYPE":"U","ECCENTRICITY":"0.00015210","BSTAR":"0.00023939000000","TLE_LINE1":"1 48696U 21044BL  22132.71137461  .00003287  00000-0  23939-3 0  9993","OBJECT_TYPE":"PAYLOAD","OBJECT_NAME":"STARLINK-2753","GP_ID":"203391455","SEMIMAJOR_AXIS":"6925.330","ELEMENT_SET_NO":"999","RA_OF_ASC_NODE":"242.9475","APOAPSIS":"548.249","NORAD_CAT_ID":"48696","SITE":"AFETR","MEAN_MOTION":"15.06405926","ARG_OF_PERICENTER":"37.5595","EPHEMERIS_TYPE":"0","MEAN_ELEMENT_THEORY":"SGP4","RCS_SIZE":"LARGE","INCLINATION":"53.0545","OBJECT_ID":"2021-044BL","COUNTRY_CODE":"US","MEAN_MOTION_DDOT":"0.0000000000000","MEAN_MOTION_DOT":"0.00003287","CENTER_NAME":"EARTH","PERIAPSIS":"546.142","DECAY_DATE":null,"EPOCH":"2022-05-12T17:04:22.766304","REV_AT_EPOCH":"5357","TLE_LINE2":"2 48696  53.0545 242.9475 0001521  37.5595 322.5500 15.06405926 53578","LAUNCH_DATE":"2021-05-26","FILE":"3442534","REF_FRAME":"TEME"},{"TIME_SYSTEM":"UTC","MEAN_ANOMALY":"301.9400","ECCENTRICITY":"0.00015990","CLASSIFICATION_TYPE":"U","PERIOD":"95.593","BSTAR":"0.00007766600000","TLE_LINE1":"1 48697U 21044BM  22132.60817521  .00000875  00000-0  77666-4 0  9991","OBJECT_NAME":"STARLINK-2715","OBJECT_TYPE":"PAYLOAD","GP_ID":"203391706","SEMIMAJOR_AXIS":"6925.372","RA_OF_ASC_NODE":"243.3763","ELEMENT_SET_NO":"999","NORAD_CAT_ID":"48697","APOAPSIS":"548.344","SITE":"AFETR","MEAN_MOTION":"15.06392482","EPHEMERIS_TYPE":"0","ARG_OF_PERICENTER":"58.1744","RCS_SIZE":"LARGE","MEAN_ELEMENT_THEORY":"SGP4","COUNTRY_CODE":"US","OBJECT_ID":"2021-044BM","INCLINATION":"53.0547","MEAN_MOTION_DDOT":"0.0000000000000","MEAN_MOTION_DOT":"0.00000875","CENTER_NAME":"EARTH","PERIAPSIS":"546.129","DECAY_DATE":null,"EPOCH":"2022-05-12T14:35:46.338144","REV_AT_EPOCH":"5355","TLE_LINE2":"2 48697  53.0547 243.3763 0001599  58.1744 301.9400 15.06392482 53556","LAUNCH_DATE":"2021-05-26","FILE":"3442534","REF_FRAME":"TEME"},{"MEAN_ANOMALY":"71.9042","TIME_SYSTEM":"UTC","CLASSIFICATION_TYPE":"U","ECCENTRICITY":"0.00059120","PERIOD":"94.960","BSTAR":"-0.00200360000000","TLE_LINE1":"1 48879U 21059A   22133.00001157 -.00038796  00000-0 -20036-2 0  9996","OBJECT_NAME":"STARLINK-3003","OBJECT_TYPE":"PAYLOAD","SEMIMAJOR_AXIS":"6894.791","GP_ID":"203394230","RA_OF_ASC_NODE":"264.0006","ELEMENT_SET_NO":"999","SITE":"AFETR","NORAD_CAT_ID":"48879","APOAPSIS":"520.733","EPHEMERIS_TYPE":"0","ARG_OF_PERICENTER":"148.2693","MEAN_MOTION":"15.16425448","COUNTRY_CODE":"US","INCLINATION":"97.5370","OBJECT_ID":"2021-059A","RCS_SIZE":"LARGE","MEAN_ELEMENT_THEORY":"SGP4","CENTER_NAME":"EARTH","MEAN_MOTION_DOT":"-0.00038796","MEAN_MOTION_DDOT":"0.0000000000000","DECAY_DATE":null,"PERIAPSIS":"512.580","REV_AT_EPOCH":"130","EPOCH":"2022-05-13T00:00:00.999648","TLE_LINE2":"2 48879  97.5370 264.0006 0005912 148.2693  71.9042 15.16425448  1304","LAUNCH_DATE":"2021-06-30","REF_FRAME":"TEME","FILE":"3442534"},{"TLE_LINE1":"1 48880U 21059B   22133.00001157 -.00037048  00000-0 -19191-2 0  9997","BSTAR":"-0.00191910000000","ECCENTRICITY":"0.00059780","CLASSIFICATION_TYPE":"U","PERIOD":"94.968","MEAN_ANOMALY":"89.2426","TIME_SYSTEM":"UTC","SITE":"AFETR","NORAD_CAT_ID":"48880","APOAPSIS":"521.135","RA_OF_ASC_NODE":"264.0027","ELEMENT_SET_NO":"999","SEMIMAJOR_AXIS":"6895.149","GP_ID":"203392478","OBJECT_NAME":"STARLINK-3004","OBJECT_TYPE":"PAYLOAD","DECAY_DATE":null,"PERIAPSIS":"512.892","CENTER_NAME":"EARTH","MEAN_MOTION_DOT":"-0.00037048","MEAN_MOTION_DDOT":"0.0000000000000","COUNTRY_CODE":"US","INCLINATION":"97.5364","OBJECT_ID":"2021-059B","RCS_SIZE":"LARGE","MEAN_ELEMENT_THEORY":"SGP4","EPHEMERIS_TYPE":"0","ARG_OF_PERICENTER":"148.8076","MEAN_MOTION":"15.16307634","REF_FRAME":"TEME","FILE":"3442534","LAUNCH_DATE":"2021-06-30","TLE_LINE2":"2 48880  97.5364 264.0027 0005978 148.8076  89.2426 15.16307634  1309","REV_AT_EPOCH":"130","EPOCH":"2022-05-13T00:00:00.999648"},{"MEAN_MOTION":"15.16541617","EPHEMERIS_TYPE":"0","ARG_OF_PERICENTER":"138.1004","RCS_SIZE":"LARGE","MEAN_ELEMENT_THEORY":"SGP4","COUNTRY_CODE":"US","OBJECT_ID":"2021-059C","INCLINATION":"97.5368","MEAN_MOTION_DDOT":"0.0000000000000","MEAN_MOTION_DOT":"-0.00037618","CENTER_NAME":"EARTH","PERIAPSIS":"512.348","DECAY_DATE":null,"EPOCH":"2022-05-13T00:00:00.999648","REV_AT_EPOCH":"130","TLE_LINE2":"2 48881  97.5368 264.0226 0005738 138.1004  98.5496 15.16541617  1303","LAUNCH_DATE":"2021-06-30","FILE":"3442534","REF_FRAME":"TEME","TIME_SYSTEM":"UTC","MEAN_ANOMALY":"98.5496","CLASSIFICATION_TYPE":"U","ECCENTRICITY":"0.00057380","PERIOD":"94.953","BSTAR":"-0.00193600000000","TLE_LINE1":"1 48881U 21059C   22133.00001157 -.00037618  00000-0 -19360-2 0  9999","OBJECT_NAME":"STARLINK-3005","OBJECT_TYPE":"PAYLOAD","SEMIMAJOR_AXIS":"6894.439","GP_ID":"203392728","RA_OF_ASC_NODE":"264.0226","ELEMENT_SET_NO":"999","NORAD_CAT_ID":"48881","APOAPSIS":"520.260","SITE":"AFETR"},{"SITE":"AFWTR","NORAD_CAT_ID":"49131","APOAPSIS":"533.584","RA_OF_ASC_NODE":"176.5318","ELEMENT_SET_NO":"999","SEMIMAJOR_AXIS":"6909.496","GP_ID":"203393758","OBJECT_NAME":"STARLINK-3096","OBJECT_TYPE":"PAYLOAD","TLE_LINE1":"1 49131U 21082B   22132.91667824 -.00554246  00000-0 -34752-1 0  9994","BSTAR":"-0.03475200000000","CLASSIFICATION_TYPE":"U","ECCENTRICITY":"0.00032170","PERIOD":"95.264","MEAN_ANOMALY":"37.6769","TIME_SYSTEM":"UTC","REF_FRAME":"TEME","FILE":"3442534","LAUNCH_DATE":"2021-09-14","TLE_LINE2":"2 49131  70.0000 176.5318 0003217 271.0915  37.6769 15.11587066  1308","REV_AT_EPOCH":"130","EPOCH":"2022-05-12T22:00:00.999936","DECAY_DATE":null,"PERIAPSIS":"529.139","MEAN_MOTION_DOT":"-0.00554246","CENTER_NAME":"EARTH","MEAN_MOTION_DDOT":"0.0000000000000","COUNTRY_CODE":"US","INCLINATION":"70.0000","OBJECT_ID":"2021-082B","RCS_SIZE":"LARGE","MEAN_ELEMENT_THEORY":"SGP4","EPHEMERIS_TYPE":"0","ARG_OF_PERICENTER":"271.0915","MEAN_MOTION":"15.11587066"},{"OBJECT_TYPE":"PAYLOAD","OBJECT_NAME":"STARLINK-3090","SEMIMAJOR_AXIS":"6950.129","GP_ID":"203393007","RA_OF_ASC_NODE":"216.2045","ELEMENT_SET_NO":"999","SITE":"AFWTR","NORAD_CAT_ID":"49132","APOAPSIS":"574.277","MEAN_ANOMALY":"131.4609","TIME_SYSTEM":"UTC","CLASSIFICATION_TYPE":"U","ECCENTRICITY":"0.00032850","PERIOD":"96.106","BSTAR":"-0.00395530000000","TLE_LINE1":"1 49132U 21082C   22132.91667824 -.00046998  00000-0 -39553-2 0  9990","REV_AT_EPOCH":"130","EPOCH":"2022-05-12T22:00:00.999936","TLE_LINE2":"2 49132  70.0012 216.2045 0003285 277.5792 131.4609 14.98350794  1306","LAUNCH_DATE":"2021-09-14","REF_FRAME":"TEME","FILE":"3442534","EPHEMERIS_TYPE":"0","ARG_OF_PERICENTER":"277.5792","MEAN_MOTION":"14.98350794","COUNTRY_CODE":"US","OBJECT_ID":"2021-082C","INCLINATION":"70.0012","RCS_SIZE":"LARGE","MEAN_ELEMENT_THEORY":"SGP4","CENTER_NAME":"EARTH","MEAN_MOTION_DOT":"-0.00046998","MEAN_MOTION_DDOT":"0.0000000000000","DECAY_DATE":null,"PERIAPSIS":"569.710"}];
